NORAD_CAT_ID,OBJECT_NAME,OBJECT_TYPE,EPOCH,MEAN_MOTION,ECCENTRICITY,INCLINATION,RA_OF_ASC_NODE,ARG_OF_PERICENTER,MEAN_ANOMALY,BSTAR,MEAN_MOTION_DOT,MEAN_MOTION_DDOT,TLE_LINE0,TLE_LINE1,TLE_LINE2,SEMIMAJOR_AXIS,PERIOD,APOGEE,PERIGEE,DECAYED
52681.0,STARLINK-4068,PAYLOAD,2024-01-28 07:28:58,15.08839381,0.0001423,53.22,6.9682,98.6099,261.5055,0.00019601,2.833e-05,0.0,0 STARLINK-4068,1 52681U 22053AB  24028.31179396  .00002833  00000-0  19601-3 0  9995,2 52681  53.2200   6.9682 0001423  98.6099 261.5055 15.08839381 94685,6917.882,95.438,540.732,538.763,0.0
52681.0,STARLINK-4068,PAYLOAD,2024-01-29 04:09:00,15.08839779,0.000163,53.2202,3.1032,85.0648,275.053,8.1362e-05,1.007e-05,0.0,0 STARLINK-4068,1 52681U 22053AB  24029.17291963  .00001007  00000-0  81362-4 0  9991,2 52681  53.2202   3.1032 0001630  85.0648 275.0530 15.08839779 94819,6917.881,95.438,540.874,538.618,0.0
52681.0,STARLINK-4068,PAYLOAD,2024-01-30 03:59:47,15.08843732,0.0001599,53.2194,358.6424,84.5945,275.523,7.2766e-05,8.7e-06,0.0,0 STARLINK-4068,1 52681U 22053AB  24030.16651836  .00000870  00000-0  72766-4 0  9996,2 52681  53.2194 358.6424 0001599  84.5945 275.5230 15.08843732 94579,6917.869,95.437,540.84,538.628,0.0
52681.0,STARLINK-4068,PAYLOAD,2024-01-30 07:10:33,15.08847224,0.0001538,53.2194,358.0447,81.7167,278.4,0.00011086,1.477e-05,0.0,0 STARLINK-4068,1 52681U 22053AB  24030.29899484  .00001477  00000-0  11086-3 0  9994,2 52681  53.2194 358.0447 0001538  81.7167 278.4000 15.08847224 94988,6917.858,95.437,540.787,538.659,0.0
52681.0,STARLINK-4068,PAYLOAD,2024-01-31 03:50:34,15.08843993,0.0002081,53.2206,354.175,66.4144,293.7066,9.0615e-05,1.154e-05,0.0,0 STARLINK-4068,1 52681U 22053AB  24031.16011775  .00001154  00000-0  90615-4 0  9998,2 52681  53.2206 354.1750 0002081  66.4144 293.7066 15.08843993 95112,6917.868,95.437,541.173,538.294,0.0
52681.0,STARLINK-4068,PAYLOAD,2024-01-31 21:19:48,15.08843608,0.0001564,53.2183,350.9108,85.9858,274.1313,-1.4281e-05,-5.15e-06,0.0,0 STARLINK-4068,1 52681U 22053AB  24031.88875994 -.00000515  00000-0 -14281-4 0  9995,2 52681  53.2183 350.9108 0001564  85.9858 274.1313 15.08843608 95223,6917.869,95.437,540.816,538.652,0.0
52681.0,STARLINK-4068,PAYLOAD,2024-02-01 03:41:21,15.08845248,0.0001458,53.2186,349.7216,91.9275,268.1884,-9.5321e-06,-4.4e-06,0.0,0 STARLINK-4068,1 52681U 22053AB  24032.15371714 -.00000440  00000-0 -95321-5 0  9999,2 52681  53.2186 349.7216 0001458  91.9275 268.1884 15.08845248 94872,6917.864,95.437,540.738,538.721,0.0
52681.0,STARLINK-4068,PAYLOAD,2024-02-01 21:10:35,15.08837681,0.0001781,53.2199,346.4529,110.0721,250.0463,4.8132e-05,4.78e-06,0.0,0 STARLINK-4068,1 52681U 22053AB  24032.88235954  .00000478  00000-0  48132-4 0  9990,2 52681  53.2199 346.4529 0001781 110.0721 250.0463 15.08837681 95376,6917.887,95.438,540.985,538.52,0.0
52681.0,STARLINK-4068,PAYLOAD,2024-02-02 03:32:08,15.0884055,0.0001777,53.22,345.2645,111.8453,248.2729,6.2679e-05,7.1e-06,0.0,0 STARLINK-4068,1 52681U 22053AB  24033.14731729  .00000710  00000-0  62679-4 0  9992,2 52681  53.2200 345.2645 0001777 111.8453 248.2729 15.08840550 95419,6917.879,95.438,540.973,538.514,0.0
52681.0,STARLINK-4068,PAYLOAD,2024-02-02 19:25:59,15.08836256,0.000166,53.2204,342.2928,103.2728,256.8449,6.7363e-05,7.84e-06,0.0,0 STARLINK-4068,1 52681U 22053AB  24033.80972120  .00000784  00000-0  67363-4 0  9993,2 52681  53.2204 342.2928 0001660 103.2728 256.8449 15.08836256 95125,6917.892,95.438,540.905,538.608,0.0
52681.0,STARLINK-4068,PAYLOAD,2024-02-02 21:01:23,15.08833812,0.0001641,53.2198,341.9927,103.3301,256.7874,2.8902e-05,1.72e-06,0.0,0 STARLINK-4068,1 52681U 22053AB  24033.87596415  .00000172  00000-0  28902-4 0  9996,2 52681  53.2198 341.9927 0001641 103.3301 256.7874 15.08833812 95529,6917.899,95.438,540.9,538.629,0.0
52681.0,STARLINK-4068,PAYLOAD,2024-02-03 06:33:41,15.08838319,0.0001627,53.2193,340.2074,105.3337,254.7835,5.3905e-05,5.7e-06,0.0,0 STARLINK-4068,1 52681U 22053AB  24034.27340171  .00000570  00000-0  53905-4 0  9990,2 52681  53.2193 340.2074 0001627 105.3337 254.7835 15.08838319 95582,6917.886,95.438,540.876,538.625,0.0
52681.0,STARLINK-4068,PAYLOAD,2024-02-04 03:13:42,15.08838538,0.0001344,53.2186,336.3433,93.7549,266.3597,2.7105e-05,1.43e-06,0.0,0 STARLINK-4068,1 52681U 22053AB  24035.13452484  .00000143  00000-0  27105-4 0  9996,2 52681  53.2186 336.3433 0001344  93.7549 266.3597 15.08838538 95329,6917.885,95.438,540.68,538.82,0.0
52681.0,STARLINK-4068,PAYLOAD,2024-02-04 04:49:05,15.0884299,0.0001339,53.2191,336.0443,92.8005,267.314,5.2365e-05,5.46e-06,0.0,0 STARLINK-4068,1 52681U 22053AB  24035.20076108  .00000546  00000-0  52365-4 0  9992,2 52681  53.2191 336.0443 0001339  92.8005 267.3140 15.08842990 95720,6917.871,95.437,540.663,538.81,0.0
52681.0,STARLINK-4068,PAYLOAD,2024-02-05 04:39:52,15.08846211,0.0001424,53.2198,331.5857,81.0993,279.016,0.00015014,2.103e-05,0.0,0 STARLINK-4068,1 52681U 22053AB  24036.19435787  .00002103  00000-0  15014-3 0  9993,2 52681  53.2198 331.5857 0001424  81.0993 279.0160 15.08846211 95482,6917.861,95.437,540.712,538.741,0.0
52681.0,STARLINK-4068,PAYLOAD,2024-02-05 12:36:48,15.08841426,0.0001512,53.2187,330.0963,90.0973,270.0192,2.5495e-05,1.18e-06,0.0,0 STARLINK-4068,1 52681U 22053AB  24036.52556376  .00000118  00000-0  25495-4 0  9997,2 52681  53.2187 330.0963 0001512  90.0973 270.0192 15.08841426 95926,6917.876,95.437,540.787,538.695,0.0
52681.0,STARLINK-4068,PAYLOAD,2024-02-06 02:55:16,15.08847569,0.0001443,53.2189,327.4214,85.7343,274.3814,4.6793e-05,4.57e-06,0.0,0 STARLINK-4068,1 52681U 22053AB  24037.12172000  .00000457  00000-0  46793-4 0  9992,2 52681  53.2189 327.4214 0001443  85.7343 274.3814 15.08847569 96015,6917.857,95.437,540.721,538.724,0.0
52681.0,STARLINK-4068,PAYLOAD,2024-02-07 01:10:40,15.08845382,0.0001783,53.2192,323.2585,68.6676,291.4507,1.6265e-05,-2.9e-07,0.0,0 STARLINK-4068,1 52681U 22053AB  24038.04908289 -.00000029  00000-0  16265-4 0  9997,2 52681  53.2192 323.2585 0001783  68.6676 291.4507 15.08845382 95761,6917.864,95.437,540.962,538.495,0.0
52681.0,STARLINK-4068,PAYLOAD,2024-02-07 12:18:23,15.08838288,0.0001351,53.2189,321.1769,95.6949,264.4197,-0.00010386,-1.94e-05,0.0,0 STARLINK-4068,1 52681U 22053AB  24038.51276672 -.00001940  00000-0 -10386-3 0  9994,2 52681  53.2189 321.1769 0001351  95.6949 264.4197 15.08838288 95832,6917.886,95.438,540.685,538.816,0.0
52681.0,STARLINK-4068,PAYLOAD,2024-02-08 04:12:14,15.08840715,0.0001662,53.2192,318.1994,99.649,260.469,-3.2351e-05,-8.03e-06,0.0,0 STARLINK-4068,1 52681U 22053AB  24039.17516669 -.00000803  00000-0 -32351-4 0  9994,2 52681  53.2192 318.1994 0001662  99.6490 260.4690 15.08840715 96329,6917.878,95.438,540.893,538.593,0.0
52681.0,STARLINK-4068,PAYLOAD,2024-02-08 21:41:28,15.08846007,0.0001684,53.2188,314.9288,118.2566,241.8596,-3.2998e-05,-8.13e-06,0.0,0 STARLINK-4068,1 52681U 22053AB  24039.90380561 -.00000813  00000-0 -32998-4 0  9993,2 52681  53.2188 314.9288 0001684 118.2566 241.8596 15.08846007 96430,6917.862,95.437,540.892,538.562,0.0
52681.0,STARLINK-4068,PAYLOAD,2024-02-09 04:03:00,15.08850065,0.0002073,53.2188,313.7381,132.9479,227.1687,4.1177e-05,3.67e-06,0.0,0 STARLINK-4068,1 52681U 22053AB  24040.16875975  .00000367  00000-0  41177-4 0  9992,2 52681  53.2188 313.7381 0002073 132.9479 227.1687 15.08850065 96088,6917.85,95.437,541.149,538.281,0.0
52681.0,STARLINK-4068,PAYLOAD,2024-02-09 18:21:30,15.08829561,0.0001589,53.2196,311.0632,106.3483,253.7684,8.3708e-05,1.044e-05,0.0,0 STARLINK-4068,1 52681U 22053AB  24040.76493725  .00001044  00000-0  83708-4 0  9996,2 52681  53.2196 311.0632 0001589 106.3483 253.7684 15.08829561 96177,6917.912,95.438,540.877,538.678,0.0
52681.0,STARLINK-4068,PAYLOAD,2024-02-10 03:53:49,15.08838208,0.0001396,53.2172,309.2792,109.7666,250.3477,0.00011774,1.586e-05,0.0,0 STARLINK-4068,1 52681U 22053AB  24041.16237353  .00001586  00000-0  11774-3 0  9998,2 52681  53.2172 309.2792 0001396 109.7666 250.3477 15.08838208 96231,6917.886,95.438,540.717,538.785,0.0
52681.0,STARLINK-4068,PAYLOAD,2024-02-10 22:58:26,15.08849916,0.000127,53.2168,305.7108,105.8048,254.3085,0.00014935,2.09e-05,0.0,0 STARLINK-4068,1 52681U 22053AB  24041.95724991  .00002090  00000-0  14935-3 0  9997,2 52681  53.2168 305.7108 0001270 105.8048 254.3085 15.08849916 96743,6917.85,95.437,540.594,538.837,0.0
52681.0,STARLINK-4068,PAYLOAD,2024-02-11 00:33:49,15.08851831,0.0001254,53.2171,305.4137,103.9071,256.2061,0.00018988,2.736e-05,0.0,0 STARLINK-4068,1 52681U 22053AB  24042.02348925  .00002736  00000-0  18988-3 0  9994,2 52681  53.2171 305.4137 0001254 103.9071 256.2061 15.08851831 96365,6917.844,95.437,540.577,538.842,0.0
52681.0,STARLINK-4068,PAYLOAD,2024-02-11 18:03:04,15.08845757,0.0001199,53.2171,302.1442,104.0513,256.0612,0.00015992,2.259e-05,0.0,0 STARLINK-4068,1 52681U 22053AB  24042.75213069  .00002259  00000-0  15992-3 0  9996,2 52681  53.2171 302.1442 0001199 104.0513 256.0612 15.08845757 96471,6917.863,95.437,540.557,538.898,0.0
52681.0,STARLINK-4068,PAYLOAD,2024-02-11 21:13:50,15.08847503,0.0001262,53.2173,301.5504,110.0483,250.0645,0.0001632,2.311e-05,0.0,0 STARLINK-4068,1 52681U 22053AB  24042.88460864  .00002311  00000-0  16320-3 0  9992,2 52681  53.2173 301.5504 0001262 110.0483 250.0645 15.08847503 96885,6917.857,95.437,540.595,538.849,0.0
52681.0,STARLINK-4068,PAYLOAD,2024-02-11 22:49:13,15.08849692,0.0001225,53.2173,301.2534,111.4855,248.6268,0.00021497,3.136e-05,0.0,0 STARLINK-4068,1 52681U 22053AB  24042.95084698  .00003136  00000-0  21497-3 0  9994,2 52681  53.2173 301.2534 0001225 111.4855 248.6268 15.08849692 96898,6917.851,95.437,540.563,538.868,0.0
52681.0,STARLINK-4068,PAYLOAD,2024-02-12 22:40:00,15.08840517,0.0001535,53.2168,296.7918,122.2062,237.9079,-4.3588e-05,-9.82e-06,0.0,0 STARLINK-4068,1 52681U 22053AB  24043.94445000 -.00000982  00000-0 -43588-4 0  9996,2 52681  53.2168 296.7918 0001535 122.2062 237.9079 15.08840517 97046,6917.879,95.438,540.806,538.682,0.0
